HULIANWANG DIGUI-49     
1 65106U 25168A   26062.83474919 -.00000049  00000+0  16087-3 0  9999
2 65106  50.0050 343.8239 0007399 148.5658 211.5657 13.29338439 28672
HULIANWANG DIGUI-50     
1 65107U 25168B   26062.82634792 -.00000053  00000+0  15406-3 0  9995
2 65107  50.0020 343.7236 0008355 134.4971 225.6585 13.29339064 28672
HULIANWANG DIGUI-51     
1 65108U 25168C   26062.81798284 -.00000035  00000+0  19181-3 0  9996
2 65108  50.0057 343.7493 0009706 134.4239 225.7429 13.29339438 28679
HULIANWANG DIGUI-52     
1 65109U 25168D   26062.80974201 -.00000047  00000+0  16658-3 0  9990
2 65109  50.0051 343.6888 0009600 147.4188 212.7278 13.29338066 28675
HULIANWANG DIGUI-53     
1 65110U 25168E   26062.80138623 -.00000055  00000+0  14911-3 0  9991
2 65110  50.0058 343.6672 0008394 137.0377 223.1152 13.29337966 28674
HULIANWANG DIGUI-54     
1 65111U 25168F   26062.77650638 -.00000046  00000+0  16720-3 0  9993
2 65111  50.0009 343.4475 0009988 142.2608 217.8966 13.29335157 28678
HULIANWANG DIGUI-55     
1 65112U 25168G   26062.79296014 -.00000056  00000+0  14762-3 0  9995
2 65112  50.0014 343.5413 0011261 138.0955 222.0781 13.29338702 28675
HULIANWANG DIGUI-56     
1 65113U 25168H   26062.70944699 -.00000059  00000+0  14075-3 0  9996
2 65113  50.0006 343.7521 0010983 159.8650 200.2657 13.29338037 28662
HULIANWANG DIGUI-57     
1 65114U 25168J   26062.76817686 -.00000044  00000+0  17213-3 0  9999
2 65114  50.0034 343.4514 0008738 150.5223 209.6143 13.29334932 28687
HULIANWANG DIGUI-58     
1 65164U 25174A   26062.80118025  .00000094  00000+0  18560-3 0  9997
2 65164  86.4930 287.6220 0001249  85.9742 274.1535 13.24420938 26845
HULIANWANG DIGUI-59     
1 65165U 25174B   26062.80873131  .00000080  00000+0  15200-3 0  9997
2 65165  86.4890 287.5496 0001235  85.2370 274.8905 13.24421075 26841
HULIANWANG DIGUI-60     
1 65166U 25174C   26062.81625920  .00000064  00000+0  11597-3 0  9997
2 65166  86.4922 287.6160 0001205  87.3358 272.7914 13.24421293 26842
HULIANWANG DIGUI-61     
1 65167U 25174D   26062.82386925  .00000050  00000+0  82230-4 0  9996
2 65167  86.4931 287.6360 0001160  86.2298 273.8969 13.24419820 26841
HULIANWANG DIGUI-62     
1 65168U 25174E   26062.83137906  .00000046  00000+0  73002-4 0  9993
2 65168  86.4872 287.5235 0001161  88.6505 271.4762 13.24421169 26848
HULIANWANG DIGUI-63     
1 65169U 25174F   26062.83891934  .00000048  00000+0  77988-4 0  9991
2 65169  86.4925 287.6297 0001183  86.2672 273.8597 13.24421548 26843
HULIANWANG DIGUI-64     
1 65170U 25174G   26062.77092854  .00000059  00000+0  10222-3 0  9999
2 65170  86.4884 287.5787 0001166  88.8213 271.3055 13.24421580 26839
