[{"OBJECT_NAME":"HULIANWANG DIGUI-49","OBJECT_ID":"2025-168A","EPOCH":"2026-03-03T20:02:02.330016","MEAN_MOTION":13.29338439,"ECCENTRICITY":0.0007399,"INCLINATION":50.005,"RA_OF_ASC_NODE":343.8239,"ARG_OF_PERICENTER":148.5658,"MEAN_ANOMALY":211.5657,"EPHEMERIS_TYPE":0,"CLASSIFICATION_TYPE":"U","NORAD_CAT_ID":65106,"ELEMENT_SET_NO":999,"REV_AT_EPOCH":2867,"BSTAR":0.00016087,"MEAN_MOTION_DOT":-4.9e-7,"MEAN_MOTION_DDOT":0},{"OBJECT_NAME":"HULIANWANG DIGUI-50","OBJECT_ID":"2025-168B","EPOCH":"2026-03-03T19:49:56.460288","MEAN_MOTION":13.29339064,"ECCENTRICITY":0.0008355,"INCLINATION":50.002,"RA_OF_ASC_NODE":343.7236,"ARG_OF_PERICENTER":134.4971,"MEAN_ANOMALY":225.6585,"EPHEMERIS_TYPE":0,"CLASSIFICATION_TYPE":"U","NORAD_CAT_ID":65107,"ELEMENT_SET_NO":999,"REV_AT_EPOCH":2867,"BSTAR":0.00015406,"MEAN_MOTION_DOT":-5.3e-7,"MEAN_MOTION_DDOT":0},{"OBJECT_NAME":"HULIANWANG DIGUI-51","OBJECT_ID":"2025-168C","EPOCH":"2026-03-03T19:37:53.717376","MEAN_MOTION":13.29339438,"ECCENTRICITY":0.0009706,"INCLINATION":50.0057,"RA_OF_ASC_NODE":343.7493,"ARG_OF_PERICENTER":134.4239,"MEAN_ANOMALY":225.7429,"EPHEMERIS_TYPE":0,"CLASSIFICATION_TYPE":"U","NORAD_CAT_ID":65108,"ELEMENT_SET_NO":999,"REV_AT_EPOCH":2867,"BSTAR":0.00019181,"MEAN_MOTION_DOT":-3.5e-7,"MEAN_MOTION_DDOT":0},{"OBJECT_NAME":"HULIANWANG DIGUI-52","OBJECT_ID":"2025-168D","EPOCH":"2026-03-03T19:26:01.709664","MEAN_MOTION":13.29338066,"ECCENTRICITY":0.00096,"INCLINATION":50.0051,"RA_OF_ASC_NODE":343.6888,"ARG_OF_PERICENTER":147.4188,"MEAN_ANOMALY":212.7278,"EPHEMERIS_TYPE":0,"CLASSIFICATION_TYPE":"U","NORAD_CAT_ID":65109,"ELEMENT_SET_NO":999,"REV_AT_EPOCH":2867,"BSTAR":0.00016658,"MEAN_MOTION_DOT":-4.7e-7,"MEAN_MOTION_DDOT":0},{"OBJECT_NAME":"HULIANWANG DIGUI-53","OBJECT_ID":"2025-168E","EPOCH":"2026-03-03T19:13:59.770272","MEAN_MOTION":13.29337966,"ECCENTRICITY":0.0008394,"INCLINATION":50.0058,"RA_OF_ASC_NODE":343.6672,"ARG_OF_PERICENTER":137.0377,"MEAN_ANOMALY":223.1152,"EPHEMERIS_TYPE":0,"CLASSIFICATION_TYPE":"U","NORAD_CAT_ID":65110,"ELEMENT_SET_NO":999,"REV_AT_EPOCH":2867,"BSTAR":0.00014911,"MEAN_MOTION_DOT":-5.5e-7,"MEAN_MOTION_DDOT":0},{"OBJECT_NAME":"HULIANWANG DIGUI-54","OBJECT_ID":"2025-168F","EPOCH":"2026-03-03T18:38:10.151232","MEAN_MOTION":13.29335157,"ECCENTRICITY":0.0009988,"INCLINATION":50.0009,"RA_OF_ASC_NODE":343.4475,"ARG_OF_PERICENTER":142.2608,"MEAN_ANOMALY":217.8966,"EPHEMERIS_TYPE":0,"CLASSIFICATION_TYPE":"U","NORAD_CAT_ID":65111,"ELEMENT_SET_NO":999,"REV_AT_EPOCH":2867,"BSTAR":0.0001672,"MEAN_MOTION_DOT":-4.6e-7,"MEAN_MOTION_DDOT":0},{"OBJECT_NAME":"HULIANWANG DIGUI-55","OBJECT_ID":"2025-168G","EPOCH":"2026-03-03T19:01:51.756096","MEAN_MOTION":13.29338702,"ECCENTRICITY":0.0011261,"INCLINATION":50.0014,"RA_OF_ASC_NODE":343.5413,"ARG_OF_PERICENTER":138.0955,"MEAN_ANOMALY":222.0781,"EPHEMERIS_TYPE":0,"CLASSIFICATION_TYPE":"U","NORAD_CAT_ID":65112,"ELEMENT_SET_NO":999,"REV_AT_EPOCH":2867,"BSTAR":0.00014762,"MEAN_MOTION_DOT":-5.6e-7,"MEAN_MOTION_DDOT":0},{"OBJECT_NAME":"HULIANWANG DIGUI-56","OBJECT_ID":"2025-168H","EPOCH":"2026-03-03T17:01:36.219936","MEAN_MOTION":13.29338037,"ECCENTRICITY":0.0010983,"INCLINATION":50.0006,"RA_OF_ASC_NODE":343.7521,"ARG_OF_PERICENTER":159.865,"MEAN_ANOMALY":200.2657,"EPHEMERIS_TYPE":0,"CLASSIFICATION_TYPE":"U","NORAD_CAT_ID":65113,"ELEMENT_SET_NO":999,"REV_AT_EPOCH":2866,"BSTAR":0.00014075,"MEAN_MOTION_DOT":-5.9e-7,"MEAN_MOTION_DDOT":0},{"OBJECT_NAME":"HULIANWANG DIGUI-57","OBJECT_ID":"2025-168J","EPOCH":"2026-03-03T18:26:10.480704","MEAN_MOTION":13.29334932,"ECCENTRICITY":0.0008738,"INCLINATION":50.0034,"RA_OF_ASC_NODE":343.4514,"ARG_OF_PERICENTER":150.5223,"MEAN_ANOMALY":209.6143,"EPHEMERIS_TYPE":0,"CLASSIFICATION_TYPE":"U","NORAD_CAT_ID":65114,"ELEMENT_SET_NO":999,"REV_AT_EPOCH":2868,"BSTAR":0.00017213,"MEAN_MOTION_DOT":-4.4e-7,"MEAN_MOTION_DDOT":0},{"OBJECT_NAME":"HULIANWANG DIGUI-58","OBJECT_ID":"2025-174A","EPOCH":"2026-03-03T19:13:41.973600","MEAN_MOTION":13.24420938,"ECCENTRICITY":0.0001249,"INCLINATION":86.493,"RA_OF_ASC_NODE":287.622,"ARG_OF_PERICENTER":85.9742,"MEAN_ANOMALY":274.1535,"EPHEMERIS_TYPE":0,"CLASSIFICATION_TYPE":"U","NORAD_CAT_ID":65164,"ELEMENT_SET_NO":999,"REV_AT_EPOCH":2684,"BSTAR":0.0001856,"MEAN_MOTION_DOT":9.4e-7,"MEAN_MOTION_DDOT":0},{"OBJECT_NAME":"HULIANWANG DIGUI-59","OBJECT_ID":"2025-174B","EPOCH":"2026-03-03T19:24:34.385184","MEAN_MOTION":13.24421075,"ECCENTRICITY":0.0001235,"INCLINATION":86.489,"RA_OF_ASC_NODE":287.5496,"ARG_OF_PERICENTER":85.237,"MEAN_ANOMALY":274.8905,"EPHEMERIS_TYPE":0,"CLASSIFICATION_TYPE":"U","NORAD_CAT_ID":65165,"ELEMENT_SET_NO":999,"REV_AT_EPOCH":2684,"BSTAR":0.000152,"MEAN_MOTION_DOT":8.0e-7,"MEAN_MOTION_DDOT":0},{"OBJECT_NAME":"HULIANWANG DIGUI-60","OBJECT_ID":"2025-174C","EPOCH":"2026-03-03T19:35:24.794880","MEAN_MOTION":13.24421293,"ECCENTRICITY":0.0001205,"INCLINATION":86.4922,"RA_OF_ASC_NODE":287.616,"ARG_OF_PERICENTER":87.3358,"MEAN_ANOMALY":272.7914,"EPHEMERIS_TYPE":0,"CLASSIFICATION_TYPE":"U","NORAD_CAT_ID":65166,"ELEMENT_SET_NO":999,"REV_AT_EPOCH":2684,"BSTAR":0.00011597,"MEAN_MOTION_DOT":6.4e-7,"MEAN_MOTION_DDOT":0},{"OBJECT_NAME":"HULIANWANG DIGUI-61","OBJECT_ID":"2025-174D","EPOCH":"2026-03-03T19:46:22.303200","MEAN_MOTION":13.2441982,"ECCENTRICITY":0.000116,"INCLINATION":86.4931,"RA_OF_ASC_NODE":287.636,"ARG_OF_PERICENTER":86.2298,"MEAN_ANOMALY":273.8969,"EPHEMERIS_TYPE":0,"CLASSIFICATION_TYPE":"U","NORAD_CAT_ID":65167,"ELEMENT_SET_NO":999,"REV_AT_EPOCH":2684,"BSTAR":8.223e-5,"MEAN_MOTION_DOT":5.0e-7,"MEAN_MOTION_DDOT":0},{"OBJECT_NAME":"HULIANWANG DIGUI-62","OBJECT_ID":"2025-174E","EPOCH":"2026-03-03T19:57:11.150784","MEAN_MOTION":13.24421169,"ECCENTRICITY":0.0001161,"INCLINATION":86.4872,"RA_OF_ASC_NODE":287.5235,"ARG_OF_PERICENTER":88.6505,"MEAN_ANOMALY":271.4762,"EPHEMERIS_TYPE":0,"CLASSIFICATION_TYPE":"U","NORAD_CAT_ID":65168,"ELEMENT_SET_NO":999,"REV_AT_EPOCH":2684,"BSTAR":7.3002e-5,"MEAN_MOTION_DOT":4.6e-7,"MEAN_MOTION_DDOT":0},{"OBJECT_NAME":"HULIANWANG DIGUI-63","OBJECT_ID":"2025-174F","EPOCH":"2026-03-03T20:08:02.630976","MEAN_MOTION":13.24421548,"ECCENTRICITY":0.0001183,"INCLINATION":86.4925,"RA_OF_ASC_NODE":287.6297,"ARG_OF_PERICENTER":86.2672,"MEAN_ANOMALY":273.8597,"EPHEMERIS_TYPE":0,"CLASSIFICATION_TYPE":"U","NORAD_CAT_ID":65169,"ELEMENT_SET_NO":999,"REV_AT_EPOCH":2684,"BSTAR":7.7988e-5,"MEAN_MOTION_DOT":4.8e-7,"MEAN_MOTION_DDOT":0},{"OBJECT_NAME":"HULIANWANG DIGUI-64","OBJECT_ID":"2025-174G","EPOCH":"2026-03-03T18:30:08.225856","MEAN_MOTION":13.2442158,"ECCENTRICITY":0.0001166,"INCLINATION":86.4884,"RA_OF_ASC_NODE":287.5787,"ARG_OF_PERICENTER":88.8213,"MEAN_ANOMALY":271.3055,"EPHEMERIS_TYPE":0,"CLASSIFICATION_TYPE":"U","NORAD_CAT_ID":65170,"ELEMENT_SET_NO":999,"REV_AT_EPOCH":2683,"BSTAR":0.00010222,"MEAN_MOTION_DOT":5.9e-7,"MEAN_MOTION_DDOT":0}]
